GLOBALSTAR M075 [+]     
1 37192U 10054E   23303.16726661 -.00000054  00000+0  27621-3 0  9998
2 37192  51.9938 196.2898 0001022  70.5627  86.9476 12.62255165601107
GLOBALSTAR M073 [+]     
1 37193U 10054F   23303.76860836 -.00000111  00000+0 -41874-4 0  9990
2 37193  52.0043 107.8190 0000950 100.2461 272.6226 12.62269174602693
GLOBALSTAR M083 [+]     
1 37739U 11033A   23303.47869414 -.00000119  00000+0 -86694-4 0  9990
2 37739  51.9868  58.2439 0000624  87.3943 348.8305 12.62262260571985
GLOBALSTAR M088 [+]     
1 37740U 11033B   23302.84117963 -.00000071  00000+0  18309-3 0  9990
2 37740  51.9746 326.1844 0000534  55.6458 121.3773 12.62266905567379
GLOBALSTAR M091 [+]     
1 37741U 11033C   23303.72434074 -.00000092  00000+0  63394-4 0  9992
2 37741  51.9995 285.9841 0000758  46.2701 125.1872 12.62267770568240
GLOBALSTAR M085 [+]     
1 37742U 11033D   23303.23005782 -.00000075  00000+0  15921-3 0  9992
2 37742  51.9860 239.0536 0000892  51.7644  93.0896 12.62264352568926
GLOBALSTAR M081 [+]     
1 37743U 11033E   23303.58021321 -.00000085  00000+0  10308-3 0  9993
2 37743  51.9954 240.4067 0001032  60.9078 115.8258 12.62265991569001
GLOBALSTAR M089 [+]     
1 37744U 11033F   23303.14186187 -.00000052  00000+0  28701-3 0  9998
2 37744  51.9919 196.0822 0000954  89.9603  73.7495 12.62268969569660
